[{"OBJECT_NAME":"LEMUR-2-PETERG","OBJECT_ID":"2017-042S","EPOCH":"2026-03-09T11:34:35.656032","MEAN_MOTION":15.29611459,"ECCENTRICITY":0.00037,"INCLINATION":97.398,"RA_OF_ASC_NODE":253.6596,"ARG_OF_PERICENTER":341.6938,"MEAN_ANOMALY":18.4169,"EPHEMERIS_TYPE":0,"CLASSIFICATION_TYPE":"U","NORAD_CAT_ID":42841,"ELEMENT_SET_NO":999,"REV_AT_EPOCH":47317,"BSTAR":0.00081076471,"MEAN_MOTION_DOT":0.0002324,"MEAN_MOTION_DDOT":0},{"OBJECT_NAME":"STARLINK-30855","OBJECT_ID":"2023-170S","EPOCH":"2026-03-09T22:00:01.999584","MEAN_MOTION":15.27439208,"ECCENTRICITY":3.015e-5,"INCLINATION":43.0006,"RA_OF_ASC_NODE":193.2131,"ARG_OF_PERICENTER":337.2148,"MEAN_ANOMALY":279.9902,"EPHEMERIS_TYPE":0,"CLASSIFICATION_TYPE":"U","NORAD_CAT_ID":58222,"ELEMENT_SET_NO":999,"REV_AT_EPOCH":578,"BSTAR":0.0026791375,"MEAN_MOTION_DOT":0.00073885,"MEAN_MOTION_DDOT":0}]
